NORAD_CAT_ID,OBJECT_NAME,OBJECT_TYPE,EPOCH,MEAN_MOTION,ECCENTRICITY,INCLINATION,RA_OF_ASC_NODE,ARG_OF_PERICENTER,MEAN_ANOMALY,BSTAR,MEAN_MOTION_DOT,MEAN_MOTION_DDOT,TLE_LINE0,TLE_LINE1,TLE_LINE2,SEMIMAJOR_AXIS,PERIOD,APOGEE,PERIGEE,DECAYED
55281.0,STARLINK-5298,PAYLOAD,2023-04-05 22:00:00,14.99149618,0.0003284,70.0016,219.3096,275.14,8.0508,-0.0026457,-0.00032193,0.0,0 STARLINK-5298,1 55281U 23010N   23095.91667824 -.00032193  00000-0 -26457-2 0  9995,2 55281  70.0016 219.3096 0003284 275.1400   8.0508 14.99149618  1300,6947.659,96.054,571.806,567.243,0.0
55281.0,STARLINK-5298,PAYLOAD,2023-04-06 00:00:00,14.99146549,0.0003258,70.0016,219.0992,274.0279,98.7772,-0.0026181,-0.00031857,0.0,0 STARLINK-5298,1 55281U 23010N   23096.00001157 -.00031857  00000-0 -26181-2 0  9997,2 55281  70.0016 219.0992 0003258 274.0279  98.7772 14.99146549 12395,6947.669,96.055,571.797,567.27,0.0
55281.0,STARLINK-5298,PAYLOAD,2023-04-06 12:00:02,14.99179355,0.0003348,70.0021,217.837,270.7514,279.7865,-0.0045854,-0.00055585,0.0,0 STARLINK-5298,1 55281U 23010N   23096.50002315 -.00055585  00000-0 -45854-2 0  9991,2 55281  70.0021 217.8370 0003348 270.7514 279.7865 14.99179355 12465,6947.568,96.053,571.759,567.107,0.0
55281.0,STARLINK-5298,PAYLOAD,2023-04-06 14:00:01,14.99170483,0.0003365,70.0021,217.6266,272.2031,7.9585,-0.0044699,-0.00054186,0.0,0 STARLINK-5298,1 55281U 23010N   23096.58335648 -.00054186  00000-0 -44699-2 0  9999,2 55281  70.0021 217.6266 0003365 272.2031   7.9585 14.99170483  1301,6947.595,96.053,571.798,567.122,0.0
55281.0,STARLINK-5298,PAYLOAD,2023-04-06 22:00:00,14.99148528,0.0003381,70.0018,216.7851,272.7805,5.7864,-0.002624,-0.0003193,0.0,0 STARLINK-5298,1 55281U 23010N   23096.91667824 -.00031930  00000-0 -26240-2 0  9994,2 55281  70.0018 216.7851 0003381 272.7805   5.7864 14.99148528  1300,6947.663,96.055,571.877,567.179,0.0
55281.0,STARLINK-5298,PAYLOAD,2023-04-07 01:33:56,14.99130634,0.0002889,70.0008,216.414,278.0415,82.0416,1.1783e-05,5e-07,0.0,0 STARLINK-5298,1 55281U 23010N   23097.06524080  .00000050  00000-0  11783-4 0  9992,2 55281  70.0008 216.4140 0002889 278.0415  82.0416 14.99130634 12543,6947.718,96.056,571.59,567.576,0.0
55281.0,STARLINK-5298,PAYLOAD,2023-04-07 11:10:26,14.99137079,0.0003153,70.0005,215.4013,273.3494,86.7305,-1.514e-06,-1.12e-06,0.0,0 STARLINK-5298,1 55281U 23010N   23097.46558133 -.00000112  00000-0 -15140-5 0  9995,2 55281  70.0005 215.4013 0003153 273.3494  86.7305 14.99137079 12917,6947.698,96.055,571.754,567.373,0.0
55281.0,STARLINK-5298,PAYLOAD,2023-04-07 19:10:50,14.99144914,0.0003079,70.0003,214.5586,272.8617,87.219,8.1909e-05,9.05e-06,0.0,0 STARLINK-5298,1 55281U 23010N   23097.79919346  .00000905  00000-0  81909-4 0  9991,2 55281  70.0003 214.5586 0003079 272.8617  87.2190 14.99144914 12653,6947.674,96.055,571.678,567.4,0.0
55281.0,STARLINK-5298,PAYLOAD,2023-04-08 01:35:10,14.99138956,0.0002222,70.0009,213.8861,282.2304,77.8606,-7.6982e-06,-1.87e-06,0.0,0 STARLINK-5298,1 55281U 23010N   23098.06609900 -.00000187  00000-0 -76982-5 0  9994,2 55281  70.0009 213.8861 0002222 282.2304  77.8606 14.99138956 12694,6947.692,96.055,571.101,568.014,0.0
55281.0,STARLINK-5298,PAYLOAD,2023-04-08 12:47:45,14.99138069,0.0003009,70.0009,212.7066,275.7111,84.3705,1.7491e-05,1.19e-06,0.0,0 STARLINK-5298,1 55281U 23010N   23098.53316314  .00000119  00000-0  17491-4 0  9992,2 55281  70.0009 212.7066 0003009 275.7111  84.3705 14.99138069 13077,6947.695,96.055,571.651,567.47,0.0
55281.0,STARLINK-5298,PAYLOAD,2023-04-08 19:12:04,14.99147524,0.0002955,70.0005,212.0317,270.3158,89.7663,8.08e-06,5e-08,0.0,0 STARLINK-5298,1 55281U 23010N   23098.80005225  .00000005  00000-0  80800-5 0  9997,2 55281  70.0005 212.0317 0002955 270.3158  89.7663 14.99147524 12804,6947.666,96.055,571.584,567.478,0.0
55281.0,STARLINK-5298,PAYLOAD,2023-04-09 06:24:39,14.99135164,0.0002552,70.0019,210.8531,277.6303,82.4566,2.6324e-05,2.27e-06,0.0,0 STARLINK-5298,1 55281U 23010N   23099.26712873  .00000227  00000-0  26324-4 0  9998,2 55281  70.0019 210.8531 0002552 277.6303  82.4566 14.99135164 12874,6947.704,96.055,571.342,567.796,0.0
55281.0,STARLINK-5298,PAYLOAD,2023-04-09 11:12:54,14.99136602,0.0002727,70.0013,210.3475,274.7343,85.3505,-6.8148e-05,-9.24e-06,0.0,0 STARLINK-5298,1 55281U 23010N   23099.46730215 -.00000924  00000-0 -68148-4 0  9996,2 55281  70.0013 210.3475 0002727 274.7343  85.3505 14.99136602 13218,6947.7,96.055,571.459,567.67,0.0
55281.0,STARLINK-5298,PAYLOAD,2023-04-09 20:49:24,14.99140457,0.0003047,70.0002,209.3354,269.1567,90.9244,-4.7623e-05,-6.74e-06,0.0,0 STARLINK-5298,1 55281U 23010N   23099.86764230 -.00000674  00000-0 -47623-4 0  9991,2 55281  70.0002 209.3354 0003047 269.1567  90.9244 14.99140457 13273,6947.688,96.055,571.67,567.436,0.0
55281.0,STARLINK-5298,PAYLOAD,2023-04-10 00:01:33,14.99146428,0.000305,70.0008,208.9996,269.5874,90.4936,-9.0955e-05,-1.202e-05,0.0,0 STARLINK-5298,1 55281U 23010N   23100.00108740 -.00001202  00000-0 -90955-4 0  9992,2 55281  70.0008 208.9996 0003050 269.5874  90.4936 14.99146428 12989,6947.669,96.055,571.653,567.415,0.0
55281.0,STARLINK-5298,PAYLOAD,2023-04-10 08:01:58,14.99142905,0.0003045,70.0005,208.1575,271.2946,88.7865,5.7675e-05,6.09e-06,0.0,0 STARLINK-5298,1 55281U 23010N   23100.33470540  .00000609  00000-0  57675-4 0  9998,2 55281  70.0005 208.1575 0003045 271.2946  88.7865 14.99142905 13343,6947.68,96.055,571.661,567.43,0.0
55281.0,STARLINK-5298,PAYLOAD,2023-04-10 19:14:32,14.99151726,0.0002976,70.0007,206.978,272.4402,87.6416,0.00011052,1.254e-05,0.0,0 STARLINK-5298,1 55281U 23010N   23100.80176386  .00001254  00000-0  11052-3 0  9996,2 55281  70.0007 206.9780 0002976 272.4402  87.6416 14.99151726 13410,6947.653,96.054,571.586,567.45,0.0
55281.0,STARLINK-5298,PAYLOAD,2023-04-11 11:15:22,14.99136079,0.000308,70.0006,205.294,271.202,88.8786,-1.8929e-05,-3.24e-06,0.0,0 STARLINK-5298,1 55281U 23010N   23101.46901585 -.00000324  00000-0 -18929-4 0  9996,2 55281  70.0006 205.2940 0003080 271.2020  88.8786 14.99136079 13517,6947.701,96.055,571.706,567.426,0.0
55281.0,STARLINK-5298,PAYLOAD,2023-04-11 19:15:47,14.99142984,0.0003075,70.0005,204.4521,271.1847,88.896,3.192e-05,2.95e-06,0.0,0 STARLINK-5298,1 55281U 23010N   23101.80262950  .00000295  00000-0  31920-4 0  9991,2 55281  70.0005 204.4521 0003075 271.1847  88.8960 14.99142984 13563,6947.68,96.055,571.681,567.409,0.0
55281.0,STARLINK-5298,PAYLOAD,2023-04-12 11:16:37,14.991405,0.0002927,70.0009,202.7686,267.6577,92.4248,-8.0276e-05,-1.072e-05,0.0,0 STARLINK-5298,1 55281U 23010N   23102.46987383 -.00001072  00000-0 -80276-4 0  9992,2 55281  70.0009 202.7686 0002927 267.6577  92.4248 14.99140500 13668,6947.688,96.055,571.586,567.519,0.0
55281.0,STARLINK-5298,PAYLOAD,2023-04-13 09:41:46,14.99142446,0.0002852,70.0005,200.4099,270.6688,89.4145,-9.6111e-05,-1.265e-05,0.0,0 STARLINK-5298,1 55281U 23010N   23103.40400775 -.00001265  00000-0 -96111-4 0  9991,2 55281  70.0005 200.4099 0002852 270.6688  89.4145 14.99142446 13800,6947.682,96.055,571.528,567.565,0.0
55281.0,STARLINK-5298,PAYLOAD,2023-04-14 11:19:05,14.9913606,0.0003102,70.0002,197.714,268.8783,91.2022,3.5944e-05,3.44e-06,0.0,0 STARLINK-5298,1 55281U 23010N   23104.47159175  .00000344  00000-0  35944-4 0  9996,2 55281  70.0002 197.7140 0003102 268.8783  91.2022 14.99136060 13963,6947.701,96.055,571.722,567.411,0.0
55281.0,STARLINK-5298,PAYLOAD,2023-04-14 16:07:19,14.99142113,0.0002963,70.0001,197.2088,267.6702,92.4118,5.3811e-05,5.62e-06,0.0,0 STARLINK-5298,1 55281U 23010N   23104.67175903  .00000562  00000-0  53811-4 0  9990,2 55281  70.0001 197.2088 0002963 267.6702  92.4118 14.99142113 13684,6947.683,96.055,571.606,567.489,0.0
55281.0,STARLINK-5298,PAYLOAD,2023-04-15 12:56:24,14.99140539,0.0002823,70.0005,195.0194,265.4056,94.678,3.0511e-05,2.78e-06,0.0,0 STARLINK-5298,1 55281U 23010N   23105.53917181  .00000278  00000-0  30511-4 0  9994,2 55281  70.0005 195.0194 0002823 265.4056  94.6780 14.99140539 14124,6947.687,96.055,571.514,567.591,0.0
55281.0,STARLINK-5298,PAYLOAD,2023-04-15 16:08:33,14.99146112,0.0002711,70.0007,194.6822,265.8056,94.2794,8.5442e-05,9.48e-06,0.0,0 STARLINK-5298,1 55281U 23010N   23105.67261425  .00000948  00000-0  85442-4 0  9999,2 55281  70.0007 194.6822 0002711 265.8056  94.2794 14.99146112 13830,6947.67,96.055,571.419,567.652,0.0
55281.0,STARLINK-5298,PAYLOAD,2023-04-16 04:57:14,14.99136132,0.000264,70.0007,193.3354,275.2188,84.867,-2.964e-05,-4.55e-06,0.0,0 STARLINK-5298,1 55281U 23010N   23106.20641633 -.00000455  00000-0 -29640-4 0  9995,2 55281  70.0007 193.3354 0002640 275.2188  84.8670 14.99136132 13916,6947.701,96.055,571.4,567.732,0.0
55281.0,STARLINK-5298,PAYLOAD,2023-04-16 12:57:39,14.99132798,0.0002735,70.001,192.4936,274.2541,85.8306,-5.5895e-05,-7.75e-06,0.0,0 STARLINK-5298,1 55281U 23010N   23106.54003966 -.00000775  00000-0 -55895-4 0  9999,2 55281  70.0010 192.4936 0002735 274.2541  85.8306 14.99132798 14274,6947.711,96.056,571.477,567.676,0.0
55281.0,STARLINK-5298,PAYLOAD,2023-04-16 16:09:49,14.99135019,0.0002803,70.0011,192.1569,279.7323,80.352,-2.7485e-05,-4.29e-06,0.0,0 STARLINK-5298,1 55281U 23010N   23106.67348617 -.00000429  00000-0 -27485-4 0  9998,2 55281  70.0011 192.1569 0002803 279.7323  80.3520 14.99135019 14297,6947.705,96.055,571.517,567.622,0.0
55281.0,STARLINK-5298,PAYLOAD,2023-04-17 04:58:28,14.99134959,0.0002802,70.0006,190.809,271.0449,89.0389,-4.4882e-05,-6.4e-06,0.0,0 STARLINK-5298,1 55281U 23010N   23107.20727859 -.00000640  00000-0 -44882-4 0  9992,2 55281  70.0006 190.8090 0002802 271.0449  89.0389 14.99134959 14064,6947.705,96.055,571.516,567.623,0.0
55281.0,STARLINK-5298,PAYLOAD,2023-04-17 12:58:53,14.99136223,0.0002755,70.0009,189.9672,267.5828,92.5016,-2.0606e-05,-3.45e-06,0.0,0 STARLINK-5298,1 55281U 23010N   23107.54089747 -.00000345  00000-0 -20606-4 0  9996,2 55281  70.0009 189.9672 0002755 267.5828  92.5016 14.99136223 14422,6947.701,96.055,571.48,567.652,0.0
